{
    "links": {
        "self": "http://www.neowsapp.com/rest/v1/neo/3748557?api_key=iIulBulltgU6a56xZRHN4H3l9WmuAYTsLGpBGhQ2"
    },
    "id": "3748557",
    "neo_reference_id": "3748557",
    "name": "(2016 GW)",
    "designation": "2016 GW",
    "nasa_jpl_url": "http://ssd.jpl.nasa.gov/sbdb.cgi?sstr=3748557",
    "absolute_magnitude_h": 24.8,
    "estimated_diameter": {
        "kilometers": {
            "estimated_diameter_min": 0.0291443905,
            "estimated_diameter_max": 0.0651688382
        },
        "meters": {
            "estimated_diameter_min": 29.1443904535,
            "estimated_diameter_max": 65.1688382168
        },
        "miles": {
            "estimated_diameter_min": 0.018109479,
            "estimated_diameter_max": 0.0404940262
        },
        "feet": {
            "estimated_diameter_min": 95.6180819754,
            "estimated_diameter_max": 213.8085311752
        }
    },
    "is_potentially_hazardous_asteroid": false,
    "close_approach_data": [
        {
            "close_approach_date": "2016-04-11",
            "close_approach_date_full": "2016-Apr-11 14:34",
            "epoch_date_close_approach": 1460385240000,
            "relative_velocity": {
                "kilometers_per_second": "12.6623802205",
                "kilometers_per_hour": "45584.5687938785",
                "miles_per_hour": "28324.4783152852"
            },
            "miss_distance": {
                "astronomical": "0.09746363",
                "lunar": "37.91335207",
                "kilometers": "14580351.4504681",
                "miles": "9059810.28233578"
            },
            "orbiting_body": "Earth"
        }
    ],
    "orbital_data": {
        "orbit_id": "7",
        "orbit_determination_date": "2017-04-06 08:26:56",
        "first_observation_date": "2016-04-01",
        "last_observation_date": "2016-04-17",
        "data_arc_in_days": 16,
        "observations_used": 30,
        "orbit_uncertainty": "9",
        "minimum_orbit_intersection": ".097099",
        "jupiter_tisserand_invariant": "4.002",
        "epoch_osculation": "2457482.5",
        "eccentricity": ".4290821163716784",
        "semi_major_axis": "1.730137751502835",
        "inclination": "17.26732696838956",
        "ascending_node_longitude": "190.8388390932801",
        "orbital_period": "831.2266345554319",
        "perihelion_distance": ".9877665834734612",
        "perihelion_argument": "55.24842812682861",
        "aphelion_distance": "2.472508919532208",
        "perihelion_time": "2457528.320828803143",
        "mean_anomaly": "340.1552336229531",
        "mean_motion": ".4330948805466757",
        "equinox": "J2000",
        "orbit_class": {
            "orbit_class_type": "APO",
            "orbit_class_description": "Near-Earth asteroid orbits which cross the Earth’s orbit similar to that of 1862 Apollo",
            "orbit_class_range": "a (semi-major axis) > 1.0 AU; q (perihelion) < 1.017 AU"
        }
    },
    "is_sentry_object": false
}